{"fetched_at":"2026-07-23T17:55:06.836Z","source":"https://celestrak.org/NORAD/elements/gp.php?GROUP=kuiper&FORMAT=JSON","constellation":"kuiper","records":[{"OBJECT_NAME":"KUIPER-00500","OBJECT_ID":"2026-095U","EPOCH":"2026-07-23T02:11:22.612416","CLASSIFICATION_TYPE":"U","MEAN_MOTION":14.79965516,"ECCENTRICITY":0.00015755,"INCLINATION":51.9012,"RA_OF_ASC_NODE":91.8895,"ARG_OF_PERICENTER":65.2803,"MEAN_ANOMALY":294.8323,"EPHEMERIS_TYPE":0,"NORAD_CAT_ID":68882,"ELEMENT_SET_NO":999,"REV_AT_EPOCH":1293,"BSTAR":0.00052371101,"MEAN_MOTION_DOT":0.00003776,"MEAN_MOTION_DDOT":0},{"OBJECT_NAME":"KUIPER-00502","OBJECT_ID":"2026-095V","EPOCH":"2026-07-23T06:00:02.000160","CLASSIFICATION_TYPE":"U","MEAN_MOTION":15.09721016,"ECCENTRICITY":0.00059016,"INCLINATION":51.8909,"RA_OF_ASC_NODE":69.1592,"ARG_OF_PERICENTER":57.1662,"MEAN_ANOMALY":204.6451,"EPHEMERIS_TYPE":0,"NORAD_CAT_ID":68883,"ELEMENT_SET_NO":999,"REV_AT_EPOCH":335,"BSTAR":-0.079538748,"MEAN_MOTION_DOT":-0.01192019,"MEAN_MOTION_DDOT":0},{"OBJECT_NAME":"KUIPER-00503","OBJECT_ID":"2026-095W","EPOCH":"2026-07-23T04:41:08.548512","CLASSIFICATION_TYPE":"U","MEAN_MOTION":14.79927363,"ECCENTRICITY":0.00008081,"INCLINATION":51.8986,"RA_OF_ASC_NODE":88.9189,"ARG_OF_PERICENTER":103.1886,"MEAN_ANOMALY":256.9166,"EPHEMERIS_TYPE":0,"NORAD_CAT_ID":68884,"ELEMENT_SET_NO":999,"REV_AT_EPOCH":1298,"BSTAR":0.000087400247,"MEAN_MOTION_DOT":0.00000445,"MEAN_MOTION_DDOT":0},{"OBJECT_NAME":"KUIPER-00504","OBJECT_ID":"2026-095X","EPOCH":"2026-07-23T02:03:38.640096","CLASSIFICATION_TYPE":"U","MEAN_MOTION":14.79957869,"ECCENTRICITY":0.00010634,"INCLINATION":51.9029,"RA_OF_ASC_NODE":96.9148,"ARG_OF_PERICENTER":95.425,"MEAN_ANOMALY":264.6834,"EPHEMERIS_TYPE":0,"NORAD_CAT_ID":68885,"ELEMENT_SET_NO":999,"REV_AT_EPOCH":1286,"BSTAR":0.00052723842,"MEAN_MOTION_DOT":0.00003803,"MEAN_MOTION_DDOT":0},{"OBJECT_NAME":"KUIPER-00505","OBJECT_ID":"2026-095Y","EPOCH":"2026-07-22T17:24:19.181664","CLASSIFICATION_TYPE":"U","MEAN_MOTION":14.79938721,"ECCENTRICITY":0.00008931,"INCLINATION":51.9025,"RA_OF_ASC_NODE":88.5118,"ARG_OF_PERICENTER":107.7839,"MEAN_ANOMALY":252.322,"EPHEMERIS_TYPE":0,"NORAD_CAT_ID":68886,"ELEMENT_SET_NO":999,"REV_AT_EPOCH":1294,"BSTAR":-0.00017699214,"MEAN_MOTION_DOT":-0.0000157,"MEAN_MOTION_DDOT":0},{"OBJECT_NAME":"KUIPER-00507","OBJECT_ID":"2026-095Z","EPOCH":"2026-07-23T06:00:02.000160","CLASSIFICATION_TYPE":"U","MEAN_MOTION":14.76433638,"ECCENTRICITY":0.00015577,"INCLINATION":51.9,"RA_OF_ASC_NODE":75.9967,"ARG_OF_PERICENTER":28.5238,"MEAN_ANOMALY":17.8178,"EPHEMERIS_TYPE":0,"NORAD_CAT_ID":68887,"ELEMENT_SET_NO":999,"REV_AT_EPOCH":383,"BSTAR":-0.0038727242,"MEAN_MOTION_DOT":-0.00027285,"MEAN_MOTION_DDOT":0},{"OBJECT_NAME":"KUIPER-00511","OBJECT_ID":"2026-095AA","EPOCH":"2026-07-23T06:00:02.000160","CLASSIFICATION_TYPE":"U","MEAN_MOTION":15.03190982,"ECCENTRICITY":0.00048211,"INCLINATION":51.8948,"RA_OF_ASC_NODE":69.9082,"ARG_OF_PERICENTER":28.4573,"MEAN_ANOMALY":162.2708,"EPHEMERIS_TYPE":0,"NORAD_CAT_ID":68888,"ELEMENT_SET_NO":999,"REV_AT_EPOCH":273,"BSTAR":-0.1435832,"MEAN_MOTION_DOT":-0.01787465,"MEAN_MOTION_DDOT":0},{"OBJECT_NAME":"KUIPER-00512","OBJECT_ID":"2026-095AB","EPOCH":"2026-07-23T02:15:17.420832","CLASSIFICATION_TYPE":"U","MEAN_MOTION":14.79956486,"ECCENTRICITY":0.00009614,"INCLINATION":51.902,"RA_OF_ASC_NODE":89.3822,"ARG_OF_PERICENTER":111.5985,"MEAN_ANOMALY":248.508,"EPHEMERIS_TYPE":0,"NORAD_CAT_ID":68889,"ELEMENT_SET_NO":999,"REV_AT_EPOCH":1296,"BSTAR":0.00055473455,"MEAN_MOTION_DOT":0.00004013,"MEAN_MOTION_DDOT":0},{"OBJECT_NAME":"KUIPER-00519","OBJECT_ID":"2026-095AC","EPOCH":"2026-07-23T00:53:35.006208","CLASSIFICATION_TYPE":"U","MEAN_MOTION":14.79940473,"ECCENTRICITY":0.00027439,"INCLINATION":51.9021,"RA_OF_ASC_NODE":79.6926,"ARG_OF_PERICENTER":39.2866,"MEAN_ANOMALY":320.8295,"EPHEMERIS_TYPE":0,"NORAD_CAT_ID":68890,"ELEMENT_SET_NO":999,"REV_AT_EPOCH":1309,"BSTAR":-0.00029580765,"MEAN_MOTION_DOT":-0.00002476,"MEAN_MOTION_DDOT":0},{"OBJECT_NAME":"KUIPER-00521","OBJECT_ID":"2026-095AD","EPOCH":"2026-07-23T06:00:02.000160","CLASSIFICATION_TYPE":"U","MEAN_MOTION":14.84181051,"ECCENTRICITY":0.00023192,"INCLINATION":51.9016,"RA_OF_ASC_NODE":72.5174,"ARG_OF_PERICENTER":278.5474,"MEAN_ANOMALY":107.5939,"EPHEMERIS_TYPE":0,"NORAD_CAT_ID":68891,"ELEMENT_SET_NO":999,"REV_AT_EPOCH":580,"BSTAR":-0.006270922,"MEAN_MOTION_DOT":-0.00052766,"MEAN_MOTION_DDOT":0},{"OBJECT_NAME":"KUIPER-00524","OBJECT_ID":"2026-095AE","EPOCH":"2026-07-21T16:27:10.872864","CLASSIFICATION_TYPE":"U","MEAN_MOTION":14.76421622,"ECCENTRICITY":0.00023697,"INCLINATION":51.8993,"RA_OF_ASC_NODE":87.0778,"ARG_OF_PERICENTER":120.9215,"MEAN_ANOMALY":239.1979,"EPHEMERIS_TYPE":0,"NORAD_CAT_ID":68892,"ELEMENT_SET_NO":999,"REV_AT_EPOCH":1287,"BSTAR":0.00021522856,"MEAN_MOTION_DOT":0.00001296,"MEAN_MOTION_DDOT":0},{"OBJECT_NAME":"KUIPER-00370","OBJECT_ID":"2026-098A","EPOCH":"2026-07-23T06:00:02.000160","CLASSIFICATION_TYPE":"U","MEAN_MOTION":15.00061236,"ECCENTRICITY":0.00106737,"INCLINATION":51.8969,"RA_OF_ASC_NODE":259.1167,"ARG_OF_PERICENTER":293.8387,"MEAN_ANOMALY":204.1657,"EPHEMERIS_TYPE":0,"NORAD_CAT_ID":68919,"ELEMENT_SET_NO":999,"REV_AT_EPOCH":567,"BSTAR":-0.098060578,"MEAN_MOTION_DOT":-0.01138275,"MEAN_MOTION_DDOT":0},{"OBJECT_NAME":"KUIPER-00380","OBJECT_ID":"2026-098B","EPOCH":"2026-07-23T03:23:14.451936","CLASSIFICATION_TYPE":"U","MEAN_MOTION":15.28752121,"ECCENTRICITY":0.00065715,"INCLINATION":51.8748,"RA_OF_ASC_NODE":256.408,"ARG_OF_PERICENTER":294.8873,"MEAN_ANOMALY":65.1427,"EPHEMERIS_TYPE":0,"NORAD_CAT_ID":68920,"ELEMENT_SET_NO":999,"REV_AT_EPOCH":1284,"BSTAR":0.00055626744,"MEAN_MOTION_DOT":0.00015455,"MEAN_MOTION_DDOT":0},{"OBJECT_NAME":"KUIPER-00386","OBJECT_ID":"2026-098C","EPOCH":"2026-07-23T06:00:02.000160","CLASSIFICATION_TYPE":"U","MEAN_MOTION":15.09898708,"ECCENTRICITY":0.00033854,"INCLINATION":51.89,"RA_OF_ASC_NODE":254.774,"ARG_OF_PERICENTER":15.965,"MEAN_ANOMALY":91.0389,"EPHEMERIS_TYPE":0,"NORAD_CAT_ID":68921,"ELEMENT_SET_NO":999,"REV_AT_EPOCH":529,"BSTAR":-0.10801859,"MEAN_MOTION_DOT":-0.01605178,"MEAN_MOTION_DDOT":0},{"OBJECT_NAME":"KUIPER-00388","OBJECT_ID":"2026-098D","EPOCH":"2026-07-23T06:00:02.000160","CLASSIFICATION_TYPE":"U","MEAN_MOTION":14.76430293,"ECCENTRICITY":0.00014968,"INCLINATION":51.9001,"RA_OF_ASC_NODE":263.5712,"ARG_OF_PERICENTER":77.2074,"MEAN_ANOMALY":193.0923,"EPHEMERIS_TYPE":0,"NORAD_CAT_ID":68922,"ELEMENT_SET_NO":999,"REV_AT_EPOCH":514,"BSTAR":-0.0026644072,"MEAN_MOTION_DOT":-0.00018861,"MEAN_MOTION_DDOT":0},{"OBJECT_NAME":"KUIPER-00405","OBJECT_ID":"2026-098E","EPOCH":"2026-07-23T06:00:02.000160","CLASSIFICATION_TYPE":"U","MEAN_MOTION":14.79378747,"ECCENTRICITY":0.00036798,"INCLINATION":51.9006,"RA_OF_ASC_NODE":261.0783,"ARG_OF_PERICENTER":106.8325,"MEAN_ANOMALY":338.2451,"EPHEMERIS_TYPE":0,"NORAD_CAT_ID":68923,"ELEMENT_SET_NO":999,"REV_AT_EPOCH":488,"BSTAR":-0.0076149302,"MEAN_MOTION_DOT":-0.00057036,"MEAN_MOTION_DDOT":0}]}
