KUIPER-00500            
1 68882U 26095U   26204.09123394  .00003776  00000+0  52371-3 0  9992
2 68882  51.9012  91.8895 0001575  65.2803 294.8323 14.79965516 12933
KUIPER-00502            
1 68883U 26095V   26204.25002315 -.01192019  00000+0 -79539-1 0  9995
2 68883  51.8909  69.1592 0005901  57.1662 204.6451 15.09721016  3356
KUIPER-00503            
1 68884U 26095W   26204.19523783  .00000445  00000+0  87400-4 0  9993
2 68884  51.8986  88.9189 0000808 103.1886 256.9166 14.79927363 12985
KUIPER-00504            
1 68885U 26095X   26204.08586389  .00003803  00000+0  52724-3 0  9994
2 68885  51.9029  96.9148 0001063  95.4250 264.6834 14.79957869 12860
KUIPER-00505            
1 68886U 26095Y   26203.72522201 -.00001570  00000+0 -17699-3 0  9991
2 68886  51.9025  88.5118 0000893 107.7839 252.3220 14.79938721 12949
KUIPER-00507            
1 68887U 26095Z   26204.25002315 -.00027285  00000+0 -38727-2 0  9995
2 68887  51.9000  75.9967 0001557  28.5238  17.8178 14.76433638  3834
KUIPER-00511            
1 68888U 26095AA  26204.25002315 -.01787465  00000+0 -14358+0 0  9991
2 68888  51.8948  69.9082 0004821  28.4573 162.2708 15.03190982  2739
KUIPER-00512            
1 68889U 26095AB  26204.09395163  .00004013  00000+0  55473-3 0  9995
2 68889  51.9020  89.3822 0000961 111.5985 248.5080 14.79956486 12960
KUIPER-00519            
1 68890U 26095AC  26204.03721072 -.00002476  00000+0 -29581-3 0  9997
2 68890  51.9021  79.6926 0002743  39.2866 320.8295 14.79940473 13090
KUIPER-00521            
1 68891U 26095AD  26204.25002315 -.00052766  00000+0 -62709-2 0  9999
2 68891  51.9016  72.5174 0002319 278.5474 107.5939 14.84181051  5804
KUIPER-00524            
1 68892U 26095AE  26202.68554251  .00001296  00000+0  21523-3 0  9996
2 68892  51.8993  87.0778 0002369 120.9215 239.1979 14.76421622 12870
KUIPER-00370            
1 68919U 26098A   26204.25002315 -.01138275  00000+0 -98061-1 0  9993
2 68919  51.8969 259.1167 0010673 293.8387 204.1657 15.00061236  5678
KUIPER-00380            
1 68920U 26098B   26204.14113949  .00015455  00000+0  55627-3 0  9993
2 68920  51.8748 256.4080 0006571 294.8873  65.1427 15.28752121 12849
KUIPER-00386            
1 68921U 26098C   26204.25002315 -.01605178  00000+0 -10802+0 0  9992
2 68921  51.8900 254.7740 0003385  15.9650  91.0389 15.09898708  5296
KUIPER-00388            
1 68922U 26098D   26204.25002315 -.00018861  00000+0 -26644-2 0  9993
2 68922  51.9001 263.5712 0001496  77.2074 193.0923 14.76430293  5144
KUIPER-00405            
1 68923U 26098E   26204.25002315 -.00057036  00000+0 -76149-2 0  9996
2 68923  51.9006 261.0783 0003679 106.8325 338.2451 14.79378747  4881
